     2.100          NAVIGATION                              RINEX VERSION / TYPE
fic2rin                                 01/28/2012 00:12:52 PGM / RUN BY / DATE
                                                            END OF HEADER
 4 12  1 27 17 59 44.0  .761188566685D-04  .113686837722D-10  .000000000000D+00
     .120000000000D+02  .355312500000D+02  .487198865217D-08  .308960820197D+01
     .166334211826D-05  .999120983761D-02  .113807618618D-04  .515379366112D+04
     .496784000000D+06 -.186264514923D-07  .102435573459D+01 -.158324837685D-06
     .937747553750D+00  .147156250000D+03  .826259956701D+00 -.798676125209D-08
     .216794744657D-09  .100000000000D+01  .167200000000D+04  .000000000000D+00
     .240000000000D+01  .000000000000D+00 -.651925802231D-08  .120000000000D+02
     .489606000000D+06  .400000000000D+01
11 12  1 27 17 59 44.0 -.226869713515D-03 -.352429196937D-11  .000000000000D+00
     .360000000000D+02 -.140625000000D+01  .604560896674D-08 -.136028420434D+01
     .223517417908D-07  .127335764701D-01  .103674829006D-04  .515367859077D+04
     .496784000000D+06  .288709998131D-06  .757350221694D+00  .191852450371D-06
     .888172624755D+00  .137875000000D+03  .102494472003D+01 -.865893210785D-08
     .935753263594D-10  .100000000000D+01  .167200000000D+04  .000000000000D+00
     .240000000000D+01  .000000000000D+00 -.116415321827D-07  .360000000000D+02
     .489606000000D+06  .400000000000D+01
31 12  1 27 17 59 44.0  .200873706490D-03  .477484718431D-11  .000000000000D+00
     .200000000000D+01  .340312500000D+02  .390944855851D-08 -.152974744236D+01
     .178441405296D-05  .803035916761D-02  .101346522570D-04  .515357958221D+04
     .496784000000D+06 -.132247805595D-06 -.210164962635D+01  .335276126862D-07
     .980675932426D+00  .199718750000D+03 -.917036298357D+00 -.782425448303D-08
     .170721396946D-09  .100000000000D+01  .167200000000D+04  .000000000000D+00
     .240000000000D+01  .000000000000D+00 -.130385160446D-07  .200000000000D+01
     .489606000000D+06  .400000000000D+01
 1 12  1 27 18  0  0.0  .194263178855D-03  .115960574476D-10  .000000000000D+00
     .230000000000D+02  .283125000000D+02  .445804283824D-08 -.180298060044D+01
     .141188502312D-05  .581324449740D-03  .109206885099D-04  .515366258240D+04
     .496800000000D+06  .167638063431D-07  .101843411138D+01 -.149011611938D-07
     .960115787694D+00  .169218750000D+03  .104334256798D+01 -.790961518151D-08
     .223223583873D-09  .100000000000D+01  .167200000000D+04  .000000000000D+00
     .240000000000D+01  .000000000000D+00  .791624188423D-08  .230000000000D+02
     .489606000000D+06  .400000000000D+01
 5 12  1 27 18  0  0.0 -.275705009699D-03 -.454747350886D-11  .000000000000D+00
     .550000000000D+02  .467812500000D+02  .521128849966D-08  .188798386505D+01
     .254437327385D-05  .268723315094D-02  .495277345181D-05  .515358913231D+04
     .496800000000D+06 -.167638063431D-07  .207051518497D+01  .447034835815D-07
     .951577075725D+00  .280593750000D+03  .289671740322D+00 -.847285292833D-08
     .128219626576D-09  .100000000000D+01  .167200000000D+04  .000000000000D+00
     .240000000000D+01  .000000000000D+00 -.102445483208D-07  .550000000000D+02
     .489606000000D+06  .400000000000D+01
 6 12  1 27 18  0  0.0  .271941535175D-04  .227373675443D-11  .000000000000D+00
     .990000000000D+02 -.807500000000D+02  .511092717635D-08  .206674502418D+01
    -.423379242420D-05  .693168141879D-02  .669993460178D-05  .515370354080D+04
     .496800000000D+06  .100582838058D-06 -.785807441063D-01  .242143869400D-07
     .937728496316D+00  .237218750000D+03 -.618352968037D+00 -.836070539980D-08
    -.301441127661D-09  .100000000000D+01  .167200000000D+04  .000000000000D+00
     .485000000000D+01  .000000000000D+00 -.512227416039D-08  .990000000000D+02
     .489606000000D+06  .400000000000D+01
 7 12  1 27 18  0  0.0  .528795644641D-04  .261479726760D-11  .000000000000D+00
     .270000000000D+02  .417500000000D+02  .392944939163D-08 -.153367199221D+01
     .203959643841D-05  .507958466187D-02  .988505780697D-05  .515362529564D+04
     .496800000000D+06 -.689178705215D-07 -.210402424522D+01 -.987201929092D-07
     .975585799670D+00  .198156250000D+03 -.300509935100D+01 -.771710716277D-08
     .172150027883D-09  .100000000000D+01  .167200000000D+04  .000000000000D+00
     .240000000000D+01  .000000000000D+00 -.111758708954D-07  .270000000000D+02
     .489606000000D+06  .400000000000D+01
 8 12  1 27 18  0  0.0  .495929270983D-06  .113686837722D-12  .000000000000D+00
     .460000000000D+02  .485625000000D+02  .342942856375D-08 -.211002414185D+01
     .229105353355D-05  .120788122294D-01  .103954225779D-04  .515371758842D+04
     .496800000000D+06 -.558793544769D-07 -.202329040900D+01 -.147148966789D-06
     .997546823052D+00  .198468750000D+03 -.298230672013D+01 -.748531179328D-08
     .315370279295D-09  .100000000000D+01  .167200000000D+04  .000000000000D+00
     .485000000000D+01  .000000000000D+00 -.419095158577D-08  .460000000000D+02
     .489606000000D+06  .400000000000D+01
 9 12  1 27 18  0  0.0  .134615227580D-03  .250111042988D-11  .000000000000D+00
     .340000000000D+02  .297812500000D+02  .364515183521D-08 -.218703708397D+01
     .161305069923D-05  .171790054301D-01  .105500221252D-04  .515364260292D+04
     .496800000000D+06  .277534127235D-06 -.213064620752D+01  .143423676491D-06
     .984397929565D+00  .185312500000D+03  .160430827338D+01 -.740387982988D-08
     .101789954246D-09  .100000000000D+01  .167200000000D+04  .000000000000D+00
     .240000000000D+01  .000000000000D+00 -.558793544769D-08  .340000000000D+02
     .489606000000D+06  .400000000000D+01
10 12  1 27 18  0  0.0 -.270842574537D-04 -.136424205266D-11  .000000000000D+00
     .210000000000D+02  .416250000000D+02  .525557605870D-08  .228282364356D+01
     .202842056751D-05  .111338441493D-01  .467896461487D-05  .515366278267D+04
     .496800000000D+06 -.139698386192D-06  .209278471437D+01 -.210478901863D-06
     .946488313723D+00  .282781250000D+03  .738781010452D+00 -.840999316712D-08
     .137148569931D-09  .100000000000D+01  .167200000000D+04  .000000000000D+00
     .240000000000D+01  .000000000000D+00 -.279396772385D-08  .210000000000D+02
     .489606000000D+06  .400000000000D+01
12 12  1 27 18  0  0.0  .490462407470D-04  .216004991671D-11  .000000000000D+00
     .108000000000D+03  .984375000000D+01  .434303804782D-08 -.165572388686D+01
     .584870576859D-06  .378698995337D-02  .452995300293D-05  .515357298470D+04
     .496800000000D+06 -.558793544769D-07 -.104777533996D+01 -.447034835815D-07
     .978108205447D+00  .301968750000D+03 -.713308249295D-01 -.810569477758D-08
     .285369029623D-09  .100000000000D+01  .167200000000D+04  .000000000000D+00
     .240000000000D+01  .000000000000D+00 -.121071934700D-07  .108000000000D+03
     .489606000000D+06  .400000000000D+01
13 12  1 27 18  0  0.0  .228336080909D-03 -.216004991671D-11  .000000000000D+00
     .550000000000D+02 -.337812500000D+02  .389551940688D-08  .881496274795D+00
    -.195950269699D-05  .470715097617D-02  .857189297676D-05  .515372628593D+04
     .496800000000D+06 -.614672899246D-07 -.307535712552D+01 -.745058059692D-07
     .987420441202D+00  .227843750000D+03  .193928823971D+01 -.780425364992D-08
    -.463947896721D-09  .100000000000D+01  .167200000000D+04  .000000000000D+00
     .240000000000D+01  .000000000000D+00 -.116415321827D-07  .550000000000D+02
     .489606000000D+06  .400000000000D+01
14 12  1 27 18  0  0.0  .191670842469D-03  .147792889038D-11  .000000000000D+00
     .135000000000D+03 -.368437500000D+02  .417303096635D-08  .888384766894D+00
    -.191107392311D-05  .620671559591D-02  .767037272453D-05  .515376657486D+04
     .496800000000D+06 -.577419996262D-07 -.310120081394D+01  .111758708954D-07
     .980308049491D+00  .244500000000D+03 -.205496854973D+01 -.801247660895D-08
    -.487520307178D-09  .100000000000D+01  .167200000000D+04  .000000000000D+00
     .240000000000D+01  .000000000000D+00 -.884756445885D-08  .135000000000D+03
     .489606000000D+06  .400000000000D+01
15 12  1 27 18  0  0.0 -.939099118114D-04  .568434188608D-12  .000000000000D+00
     .730000000000D+02 -.433750000000D+02  .499806533234D-08  .545370872863D+00
    -.225380063057D-05  .428503646981D-02  .658817589283D-05  .515375608635D+04
     .496800000000D+06  .800937414169D-07  .309821078201D+01  .391155481339D-07
     .947196810801D+00  .241000000000D+03  .967741668039D-02 -.839999275056D-08
    -.507878298027D-09  .100000000000D+01  .167200000000D+04  .000000000000D+00
     .240000000000D+01  .000000000000D+00 -.102445483208D-07  .730000000000D+02
     .489606000000D+06  .400000000000D+01
16 12  1 27 18  0  0.0 -.220770947635D-03 -.170530256582D-11  .000000000000D+00
     .120000000000D+02  .912500000000D+01  .432768026525D-08  .228775692516D+01
     .521540641785D-06  .636397732887D-02  .411085784435D-05  .515360166931D+04
     .496800000000D+06 -.614672899246D-07 -.102970548849D+01  .121071934700D-06
     .979004138903D+00  .311437500000D+03 -.819873287928D-01 -.812819571483D-08
     .162506769059D-09  .100000000000D+01  .167200000000D+04  .000000000000D+00
     .240000000000D+01  .000000000000D+00 -.977888703346D-08  .120000000000D+02
     .489606000000D+06  .400000000000D+01
17 12  1 27 18  0  0.0  .152277294546D-03 -.227373675443D-11  .000000000000D+00
     .810000000000D+02 -.728750000000D+02  .453411743562D-08  .133296430869D+01
    -.380724668503D-05  .708902534097D-02  .829994678497D-05  .515363064575D+04
     .496800000000D+06 -.111758708954D-06  .115472278684D-01  .115483999252D-06
     .962745438532D+00  .218625000000D+03 -.235999295113D+01 -.816641159239D-08
    -.297155234851D-09  .100000000000D+01  .167200000000D+04  .000000000000D+00
     .240000000000D+01  .000000000000D+00 -.107102096081D-07  .810000000000D+02
     .489606000000D+06  .400000000000D+01
